{"type":"FeatureCollection","features":[{"type":"Feature","properties":{"name":"Primary Hub–Secondary Hub","mode":"beta"},"geometry":{"type":"LineString","coordinates":[[3.3212,6.5774],[7.2632,9.0068]]}},{"type":"Feature","properties":{"name":"Primary Hub–Global Gateway","mode":"beta"},"geometry":{"type":"LineString","coordinates":[[3.3212,6.5774],[-0.4543,51.47]]}},{"type":"Feature","properties":{"name":"Secondary Hub–Transfer Gateway","mode":"beta"},"geometry":{"type":"LineString","coordinates":[[7.2632,9.0068],[55.3657,25.2532]]}}]}